ORBCOMM FM37            
1 33064U 08031E   25361.40862773  .00002192  00000+0  30963-3 0  9999
2 33064  48.4389 144.4918 0004851 134.5003 254.8638 14.80657943942670
ORBCOMM FM40            
1 33065U 08031F   25361.41882544  .00003162  00000+0  40945-3 0  9998
2 33065  48.4398 125.0810 0005971 151.4837 252.3435 14.83179377942833
VESSELSAT 1             
1 37840U 11058C   25361.32233638  .00000375  00000+0  59654-4 0  9991
2 37840  19.9635   5.1832 0013747 150.5546 209.5635 14.11401513733626
ORBCOMM FM109           
1 40086U 14040A   25360.97565567  .00000697  00000+0  18478-3 0  9995
2 40086  47.0012 185.5417 0001622 163.1083 196.9857 14.58565231609200
ORBCOMM FM107           
1 40087U 14040B   25361.47367347  .00000681  00000+0  18098-3 0  9999
2 40087  47.0029 184.0707 0000601 101.1436 258.9518 14.58643129609357
ORBCOMM FM106           
1 40088U 14040C   25361.02538464  .00001459  00000+0  27115-3 0  9995
2 40088  47.0614 352.7130 0017236 245.3591 114.5505 14.70068125611848
ORBCOMM FM111           
1 40089U 14040D   25361.46153288  .00003266  00000+0  37490-3 0  9996
2 40089  46.9985 174.1246 0027946  38.2804 322.0070 14.87802031618993
ORBCOMM FM104           
1 40090U 14040E   25361.33274051  .00000594  00000+0  16827-3 0  9998
2 40090  47.0033 220.6857 0016195   6.3878 353.7211 14.57029781608781
